[{"OBJECT_NAME":"WORLDVIEW-3 (WV-3)","OBJECT_ID":"2014-048A","EPOCH":"2026-03-02T18:24:33.324768","MEAN_MOTION":14.84815513,"ECCENTRICITY":6.66e-5,"INCLINATION":97.8647,"RA_OF_ASC_NODE":138.0513,"ARG_OF_PERICENTER":16.0558,"MEAN_ANOMALY":344.0677,"EPHEMERIS_TYPE":0,"CLASSIFICATION_TYPE":"U","NORAD_CAT_ID":40115,"ELEMENT_SET_NO":999,"REV_AT_EPOCH":62611,"BSTAR":0.00015003,"MEAN_MOTION_DOT":1.22e-5,"MEAN_MOTION_DDOT":0},{"OBJECT_NAME":"GAOFEN-2","OBJECT_ID":"2014-049A","EPOCH":"2026-03-02T21:18:37.958112","MEAN_MOTION":14.80759237,"ECCENTRICITY":0.0006529,"INCLINATION":98.0246,"RA_OF_ASC_NODE":126.1478,"ARG_OF_PERICENTER":208.7899,"MEAN_ANOMALY":151.2953,"EPHEMERIS_TYPE":0,"CLASSIFICATION_TYPE":"U","NORAD_CAT_ID":40118,"ELEMENT_SET_NO":999,"REV_AT_EPOCH":62350,"BSTAR":0.00012018,"MEAN_MOTION_DOT":8.72e-6,"MEAN_MOTION_DDOT":0},{"OBJECT_NAME":"YAOGAN-21","OBJECT_ID":"2014-053A","EPOCH":"2026-03-02T20:10:43.163040","MEAN_MOTION":15.24809196,"ECCENTRICITY":0.0010115,"INCLINATION":97.1634,"RA_OF_ASC_NODE":106.6786,"ARG_OF_PERICENTER":106.4983,"MEAN_ANOMALY":253.7368,"EPHEMERIS_TYPE":0,"CLASSIFICATION_TYPE":"U","NORAD_CAT_ID":40143,"ELEMENT_SET_NO":999,"REV_AT_EPOCH":63874,"BSTAR":0.00022356,"MEAN_MOTION_DOT":5.486e-5,"MEAN_MOTION_DDOT":0},{"OBJECT_NAME":"YAOGAN-22","OBJECT_ID":"2014-063A","EPOCH":"2026-03-02T15:18:49.686912","MEAN_MOTION":13.15526766,"ECCENTRICITY":0.0006747,"INCLINATION":100.7523,"RA_OF_ASC_NODE":211.2148,"ARG_OF_PERICENTER":72.9803,"MEAN_ANOMALY":287.2047,"EPHEMERIS_TYPE":0,"CLASSIFICATION_TYPE":"U","NORAD_CAT_ID":40275,"ELEMENT_SET_NO":999,"REV_AT_EPOCH":54580,"BSTAR":3.1022e-5,"MEAN_MOTION_DOT":-3.5e-7,"MEAN_MOTION_DDOT":0},{"OBJECT_NAME":"ASNARO","OBJECT_ID":"2014-070A","EPOCH":"2026-03-02T19:28:51.250656","MEAN_MOTION":15.19613928,"ECCENTRICITY":0.0006976,"INCLINATION":97.3533,"RA_OF_ASC_NODE":140.7534,"ARG_OF_PERICENTER":163.5697,"MEAN_ANOMALY":196.5766,"EPHEMERIS_TYPE":0,"CLASSIFICATION_TYPE":"U","NORAD_CAT_ID":40298,"ELEMENT_SET_NO":999,"REV_AT_EPOCH":62785,"BSTAR":0.00051825,"MEAN_MOTION_DOT":0.00010986,"MEAN_MOTION_DDOT":0},{"OBJECT_NAME":"YAOGAN-24","OBJECT_ID":"2014-072A","EPOCH":"2026-03-02T20:45:25.366752","MEAN_MOTION":14.76211783,"ECCENTRICITY":0.0012037,"INCLINATION":98.1286,"RA_OF_ASC_NODE":198.4151,"ARG_OF_PERICENTER":242.254,"MEAN_ANOMALY":117.7449,"EPHEMERIS_TYPE":0,"CLASSIFICATION_TYPE":"U","NORAD_CAT_ID":40310,"ELEMENT_SET_NO":999,"REV_AT_EPOCH":60803,"BSTAR":0.00018237,"MEAN_MOTION_DOT":1.21e-5,"MEAN_MOTION_DDOT":0},{"OBJECT_NAME":"CBERS 4","OBJECT_ID":"2014-079A","EPOCH":"2026-03-02T21:10:03.311328","MEAN_MOTION":14.35409776,"ECCENTRICITY":8.46e-5,"INCLINATION":98.3504,"RA_OF_ASC_NODE":122.1131,"ARG_OF_PERICENTER":54.6783,"MEAN_ANOMALY":305.4482,"EPHEMERIS_TYPE":0,"CLASSIFICATION_TYPE":"U","NORAD_CAT_ID":40336,"ELEMENT_SET_NO":999,"REV_AT_EPOCH":58870,"BSTAR":2.0023e-7,"MEAN_MOTION_DOT":-4.2e-7,"MEAN_MOTION_DDOT":0},{"OBJECT_NAME":"YAOGAN-26","OBJECT_ID":"2014-088A","EPOCH":"2026-03-02T20:43:34.009248","MEAN_MOTION":15.42837899,"ECCENTRICITY":0.0007433,"INCLINATION":97.0658,"RA_OF_ASC_NODE":64.8913,"ARG_OF_PERICENTER":81.2619,"MEAN_ANOMALY":278.9471,"EPHEMERIS_TYPE":0,"CLASSIFICATION_TYPE":"U","NORAD_CAT_ID":40362,"ELEMENT_SET_NO":999,"REV_AT_EPOCH":62128,"BSTAR":0.00076141,"MEAN_MOTION_DOT":0.00033421,"MEAN_MOTION_DDOT":0},{"OBJECT_NAME":"SMAP","OBJECT_ID":"2015-003A","EPOCH":"2026-03-02T18:07:10.857792","MEAN_MOTION":14.6332811,"ECCENTRICITY":0.0001211,"INCLINATION":98.131,"RA_OF_ASC_NODE":70.3407,"ARG_OF_PERICENTER":112.6519,"MEAN_ANOMALY":247.4811,"EPHEMERIS_TYPE":0,"CLASSIFICATION_TYPE":"U","NORAD_CAT_ID":40376,"ELEMENT_SET_NO":999,"REV_AT_EPOCH":59205,"BSTAR":0.00014009,"MEAN_MOTION_DOT":6.76e-6,"MEAN_MOTION_DDOT":0},{"OBJECT_NAME":"KOMPSAT-3A","OBJECT_ID":"2015-014A","EPOCH":"2026-03-02T20:58:16.403808","MEAN_MOTION":15.48321218,"ECCENTRICITY":0.006277,"INCLINATION":97.6858,"RA_OF_ASC_NODE":45.9367,"ARG_OF_PERICENTER":202.2813,"MEAN_ANOMALY":157.5708,"EPHEMERIS_TYPE":0,"CLASSIFICATION_TYPE":"U","NORAD_CAT_ID":40536,"ELEMENT_SET_NO":999,"REV_AT_EPOCH":60533,"BSTAR":0.00049037,"MEAN_MOTION_DOT":0.00027994,"MEAN_MOTION_DDOT":0},{"OBJECT_NAME":"SENTINEL-2A","OBJECT_ID":"2015-028A","EPOCH":"2026-02-25T04:19:12.423360","MEAN_MOTION":14.30192923,"ECCENTRICITY":0.00543683,"INCLINATION":98.5024,"RA_OF_ASC_NODE":132.8928,"ARG_OF_PERICENTER":194.7437,"MEAN_ANOMALY":165.2162,"EPHEMERIS_TYPE":0,"CLASSIFICATION_TYPE":"U","NORAD_CAT_ID":40697,"ELEMENT_SET_NO":999,"REV_AT_EPOCH":55771,"BSTAR":7.6852184e-5,"MEAN_MOTION_DOT":1.59e-6,"MEAN_MOTION_DDOT":0},{"OBJECT_NAME":"GAOFEN-8","OBJECT_ID":"2015-030A","EPOCH":"2026-03-02T20:53:14.306208","MEAN_MOTION":15.42118495,"ECCENTRICITY":0.000929,"INCLINATION":97.6923,"RA_OF_ASC_NODE":249.1403,"ARG_OF_PERICENTER":213.2728,"MEAN_ANOMALY":146.7936,"EPHEMERIS_TYPE":0,"CLASSIFICATION_TYPE":"U","NORAD_CAT_ID":40701,"ELEMENT_SET_NO":999,"REV_AT_EPOCH":59504,"BSTAR":0.0006019,"MEAN_MOTION_DOT":0.00025756,"MEAN_MOTION_DDOT":0},{"OBJECT_NAME":"CARBONITE 1 (CBNT-1)","OBJECT_ID":"2015-032D","EPOCH":"2026-03-02T19:23:07.444320","MEAN_MOTION":14.83180346,"ECCENTRICITY":0.0013224,"INCLINATION":97.6453,"RA_OF_ASC_NODE":244.3712,"ARG_OF_PERICENTER":285.4746,"MEAN_ANOMALY":74.5008,"EPHEMERIS_TYPE":0,"CLASSIFICATION_TYPE":"U","NORAD_CAT_ID":40718,"ELEMENT_SET_NO":999,"REV_AT_EPOCH":57357,"BSTAR":0.00034485,"MEAN_MOTION_DOT":2.768e-5,"MEAN_MOTION_DDOT":0},{"OBJECT_NAME":"YAOGAN-27","OBJECT_ID":"2015-040A","EPOCH":"2026-03-02T21:40:52.940064","MEAN_MOTION":13.16063429,"ECCENTRICITY":0.0008871,"INCLINATION":100.109,"RA_OF_ASC_NODE":52.9296,"ARG_OF_PERICENTER":98.7976,"MEAN_ANOMALY":261.4143,"EPHEMERIS_TYPE":0,"CLASSIFICATION_TYPE":"U","NORAD_CAT_ID":40878,"ELEMENT_SET_NO":999,"REV_AT_EPOCH":50368,"BSTAR":-0.0013398,"MEAN_MOTION_DOT":-5.51e-6,"MEAN_MOTION_DDOT":0},{"OBJECT_NAME":"GAOFEN-9 01","OBJECT_ID":"2015-047A","EPOCH":"2026-03-02T20:17:24.315648","MEAN_MOTION":14.8266079,"ECCENTRICITY":0.0028665,"INCLINATION":97.6428,"RA_OF_ASC_NODE":102.3108,"ARG_OF_PERICENTER":127.2771,"MEAN_ANOMALY":233.1063,"EPHEMERIS_TYPE":0,"CLASSIFICATION_TYPE":"U","NORAD_CAT_ID":40894,"ELEMENT_SET_NO":999,"REV_AT_EPOCH":56443,"BSTAR":0.0001741,"MEAN_MOTION_DOT":1.362e-5,"MEAN_MOTION_DDOT":0},{"OBJECT_NAME":"YAOGAN-28","OBJECT_ID":"2015-064A","EPOCH":"2026-03-02T21:08:47.064192","MEAN_MOTION":15.25855588,"ECCENTRICITY":0.0010679,"INCLINATION":97.2886,"RA_OF_ASC_NODE":202.5326,"ARG_OF_PERICENTER":200.8262,"MEAN_ANOMALY":159.2543,"EPHEMERIS_TYPE":0,"CLASSIFICATION_TYPE":"U","NORAD_CAT_ID":41026,"ELEMENT_SET_NO":999,"REV_AT_EPOCH":57446,"BSTAR":0.00042851,"MEAN_MOTION_DOT":0.00010922,"MEAN_MOTION_DDOT":0},{"OBJECT_NAME":"YAOGAN-29","OBJECT_ID":"2015-069A","EPOCH":"2026-03-02T20:16:33.158208","MEAN_MOTION":14.82987484,"ECCENTRICITY":0.0002315,"INCLINATION":98.0153,"RA_OF_ASC_NODE":90.2559,"ARG_OF_PERICENTER":48.5816,"MEAN_ANOMALY":311.5596,"EPHEMERIS_TYPE":0,"CLASSIFICATION_TYPE":"U","NORAD_CAT_ID":41038,"ELEMENT_SET_NO":999,"REV_AT_EPOCH":55486,"BSTAR":0.00011337,"MEAN_MOTION_DOT":8.67e-6,"MEAN_MOTION_DDOT":0}]
