WORLDVIEW-3 (WV-3)      
1 40115U 14048A   26061.76705237  .00001220  00000+0  15003-3 0  9996
2 40115  97.8647 138.0513 0000666  16.0558 344.0677 14.84815513626115
GAOFEN-2                
1 40118U 14049A   26061.88793933  .00000872  00000+0  12018-3 0  9998
2 40118  98.0246 126.1478 0006529 208.7899 151.2953 14.80759237623507
YAOGAN-21               
1 40143U 14053A   26061.84077735  .00005486  00000+0  22356-3 0  9994
2 40143  97.1634 106.6786 0010115 106.4983 253.7368 15.24809196638744
YAOGAN-22               
1 40275U 14063A   26061.63807508 -.00000035  00000+0  31022-4 0  9994
2 40275 100.7523 211.2148 0006747  72.9803 287.2047 13.15526766545804
ASNARO                  
1 40298U 14070A   26061.81170429  .00010986  00000+0  51825-3 0  9999
2 40298  97.3533 140.7534 0006976 163.5697 196.5766 15.19613928627857
YAOGAN-24               
1 40310U 14072A   26061.86487693  .00001210  00000+0  18237-3 0  9995
2 40310  98.1286 198.4151 0012037 242.2540 117.7449 14.76211783608035
CBERS 4                 
1 40336U 14079A   26061.88198277 -.00000042  00000+0  20023-6 0  9991
2 40336  98.3504 122.1131 0000846  54.6783 305.4482 14.35409776588709
YAOGAN-26               
1 40362U 14088A   26061.86358807  .00033421  00000+0  76141-3 0  9990
2 40362  97.0658  64.8913 0007433  81.2619 278.9471 15.42837899621280
SMAP                    
1 40376U 15003A   26061.75498678  .00000676  00000+0  14009-3 0  9993
2 40376  98.1310  70.3407 0001211 112.6519 247.4811 14.63328110592052
KOMPSAT-3A              
1 40536U 15014A   26061.87380097  .00027994  00000+0  49037-3 0  9992
2 40536  97.6858  45.9367 0062770 202.2813 157.5708 15.48321218605332
SENTINEL-2A             
1 40697U 15028A   26056.18000490  .00000159  00000+0  76852-4 0  9999
2 40697  98.5024 132.8928 0054368 194.7437 165.2162 14.30192923557712
GAOFEN-8                
1 40701U 15030A   26061.87030447  .00025756  00000+0  60190-3 0  9992
2 40701  97.6923 249.1403 0009290 213.2728 146.7936 15.42118495595047
CARBONITE 1 (CBNT-1)    
1 40718U 15032D   26061.80772505  .00002768  00000+0  34485-3 0  9999
2 40718  97.6453 244.3712 0013224 285.4746  74.5008 14.83180346573576
YAOGAN-27               
1 40878U 15040A   26061.90339051 -.00000551  00000+0 -13398-2 0  9990
2 40878 100.1090  52.9296 0008871  98.7976 261.4143 13.16063429503681
GAOFEN-9 01             
1 40894U 15047A   26061.84542032  .00001362  00000+0  17410-3 0  9992
2 40894  97.6428 102.3108 0028665 127.2771 233.1063 14.82660790564435
YAOGAN-28               
1 41026U 15064A   26061.88110028  .00010922  00000+0  42851-3 0  9998
2 41026  97.2886 202.5326 0010679 200.8262 159.2543 15.25855588574465
YAOGAN-29               
1 41038U 15069A   26061.84482822  .00000867  00000+0  11337-3 0  9998
2 41038  98.0153  90.2559 0002315  48.5816 311.5596 14.82987484554860
